"zip","city","county","pop"
"60629","Chicago","Cook","107930"
"60618","Chicago","Cook","94646"
"60639","Chicago","Cook","88515"
"60632","Chicago","Cook","86715"
"60647","Chicago","Cook","85658"
"60617","Chicago","Cook","82101"
"60804","Cicero","Cook","81505"
"60608","Chicago","Cook","80011"
"60625","Chicago","Cook","78820"
"60623","Chicago","Cook","77732"
"60634","Chicago","Cook","75604"
"60614","Chicago","Cook","72391"
"60505","Aurora","Kane","71617"
"60085","Waukegan","Lake","71265"
"60657","Chicago","Cook","70489"
"60641","Chicago","Cook","70163"
"60640","Chicago","Cook","69726"
"60620","Chicago","Cook","68761"
"60628","Chicago","Cook","65008"
"60651","Chicago","Cook","63679"
"60402","Berwyn","Cook","62729"
"60073","Round Lake","Lake","61856"
"60619","Chicago","Cook","61372"
"60609","Chicago","Cook","60551"
"60016","Des Plaines","Cook","59663"
"60638","Chicago","Cook","57057"
"60411","Chicago Heights","Cook","56862"
"60506","Aurora","Kane","55895"
"60630","Chicago","Cook","55692"
"60453","Oak Lawn","Cook","55515"
"61761","Normal","Mclean","55198"
"60056","Mount Prospect","Cook","54023"
"60622","Chicago","Cook","52957"
"60616","Chicago","Cook","52557"
"60440","Bolingbrook","Will","52440"
"60148","Lombard","Du Page","52057"
"60004","Arlington Heights","Cook","51504"
"60613","Chicago","Cook","51399"
"60626","Chicago","Cook","51017"
"60120","Elgin","Kane","50319"
"60123","Elgin","Kane","49765"
"60435","Joliet","Will","49461"
"60126","Elmhurst","Du Page","48928"
"60643","Chicago","Cook","48572"
"60649","Chicago","Cook","47084"
"60645","Chicago","Cook","46924"
"60014","Crystal Lake","Mchenry","46866"
"60637","Chicago","Cook","46621"
"60010","Barrington","Lake","46326"
"60644","Chicago","Cook","45919"
"60115","Dekalb","De Kalb","45143"
"60660","Chicago","Cook","45131"
"60540","Naperville","Du Page","43887"
"60659","Chicago","Cook","43843"
"60564","Naperville","Will","43667"
"61265","Moline","Rock Island","42746"
"62040","Granite City","Madison","42487"
"60707","Elmwood Park","Cook","42434"
"60652","Chicago","Cook","42296"
"60047","Lake Zurich","Lake","42242"
"60103","Bartlett","Cook","41845"
"61554","Pekin","Tazewell","41786"
"60025","Glenview","Cook","41552"
"60188","Carol Stream","Du Page","41472"
"60201","Evanston","Cook","41386"
"60615","Chicago","Cook","41198"
"60610","Chicago","Cook","40954"
"60543","Oswego","Kendall","40930"
"62704","Springfield","Sangamon","40754"
"60089","Buffalo Grove","Lake","40749"
"60462","Orland Park","Cook","40067"
"60446","Romeoville","Will","40032"
"60107","Streamwood","Cook","39970"
"60062","Northbrook","Cook","39917"
"60504","Aurora","Du Page","39449"
"60565","Naperville","Du Page","39261"
"60110","Carpentersville","Kane","39094"
"60193","Schaumburg","Cook","38884"
"60563","Naperville","Du Page","38785"
"60090","Wheeling","Cook","38741"
"60067","Palatine","Cook","38660"
"60101","Addison","Du Page","38596"
"61201","Rock Island","Rock Island","38018"
"61820","Champaign","Champaign","38017"
"60133","Hanover Park","Cook","37899"
"60137","Glen Ellyn","Du Page","37857"
"60031","Gurnee","Lake","37636"
"60074","Palatine","Cook","37632"
"60068","Park Ridge","Cook","37407"
"60060","Mundelein","Lake","37268"
"60477","Tinley Park","Cook","36843"
"61704","Bloomington","Mclean","36704"
"60409","Calumet City","Cook","36229"
"60451","New Lenox","Will","36036"
"62025","Edwardsville","Madison","35691"
"60185","West Chicago","Du Page","35581"
"60030","Grayslake","Lake","35440"
"60901","Kankakee","Kankakee","35432"
"61701","Bloomington","Mclean","35411"
"60624","Chicago","Cook","35054"
"60046","Lake Villa","Lake","34849"
"62521","Decatur","Macon","34716"
"61008","Belvidere","Boone","34526"
"61832","Danville","Vermilion","34077"
"60139","Glendale Heights","Du Page","33946"
"60611","Chicago","Cook","33937"
"60441","Lockport","Will","33934"
"60653","Chicago","Cook","33574"
"62702","Springfield","Sangamon","33243"
"61401","Galesburg","Knox","32831"
"60007","Elk Grove Village","Cook","32792"
"60102","Algonquin","Mchenry","32749"
"60098","Woodstock","Mchenry","32599"
"60202","Evanston","Cook","32593"
"62234","Collinsville","Madison","32579"
"60612","Chicago","Cook","32240"
"60517","Woodridge","Du Page","32099"
"60050","Mchenry","Mchenry","32000"
"62269","O Fallon","St. Clair","31755"
"62301","Quincy","Adams","31744"
"60302","Oak Park","Cook","31568"
"60076","Skokie","Cook","31393"
"60423","Frankfort","Will","31328"
"60605","Chicago","Cook","30950"
"61821","Champaign","Champaign","30937"
"62002","Alton","Madison","30937"
"61801","Urbana","Champaign","30855"
"60174","Saint Charles","Kane","30796"
"62526","Decatur","Macon","30627"
"60189","Wheaton","Du Page","30419"
"61107","Rockford","Winnebago","30412"
"60607","Chicago","Cook","30306"
"60525","La Grange","Cook","30274"
"60099","Zion","Lake","30145"
"60636","Chicago","Cook","30039"
"62221","Belleville","St. Clair","30009"
"62703","Springfield","Sangamon","29644"
"60516","Downers Grove","Du Page","29639"
"60187","Wheaton","Du Page","29611"
"60035","Highland Park","Lake","29604"
"61032","Freeport","Stephenson","29451"
"60714","Niles","Cook","29429"
"60181","Villa Park","Du Page","29365"
"61604","Peoria","Peoria","29362"
"60510","Batavia","Kane","29352"
"60048","Libertyville","Lake","29306"
"60142","Huntley","Mchenry","29206"
"60914","Bourbonnais","Kankakee","29192"
"60005","Arlington Heights","Cook","29109"
"61108","Rockford","Winnebago","29084"
"60646","Chicago","Cook","29043"
"60134","Geneva","Kane","29022"
"60656","Chicago","Cook","28982"
"60631","Chicago","Cook","28864"
"61614","Peoria","Peoria","28815"
"60156","Lake In The Hills","Mchenry","28681"
"60532","Lisle","Du Page","28586"
"62226","Belleville","St. Clair","28575"
"60018","Des Plaines","Cook","28477"
"60459","Burbank","Cook","28447"
"60827","Riverdale","Cook","28327"
"60438","Lansing","Cook","28291"
"60538","Montgomery","Kendall","28206"
"60515","Downers Grove","Du Page","27978"
"60426","Harvey","Cook","27863"
"60655","Chicago","Cook","27771"
"60544","Plainfield","Will","27709"
"60077","Skokie","Cook","27653"
"62959","Marion","Williamson","27630"
"60452","Oak Forest","Cook","27605"
"60061","Vernon Hills","Lake","27105"
"60091","Wilmette","Cook","27004"
"60015","Deerfield","Lake","26942"
"60527","Willowbrook","Du Page","26800"
"60175","Saint Charles","Kane","26775"
"60621","Chicago","Cook","26736"
"61822","Champaign","Champaign","26629"
"60013","Cary","Mchenry","26520"
"61109","Rockford","Winnebago","26462"
"62901","Carbondale","Jackson","26318"
"60467","Orland Park","Cook","26056"
"62650","Jacksonville","Morgan","26008"
"60448","Mokena","Will","25878"
"60406","Blue Island","Cook","25849"
"60445","Midlothian","Cook","25411"
"60160","Melrose Park","Cook","25357"
"60087","Waukegan","Lake","25301"
"60560","Yorkville","Kendall","25273"
"61571","Washington","Tazewell","24840"
"60439","Lemont","Du Page","24697"
"60559","Westmont","Du Page","24642"
"61611","East Peoria","Tazewell","24235"
"60172","Roselle","Du Page","24097"
"61350","Ottawa","La Salle","23969"
"61103","Rockford","Winnebago","23951"
"60002","Antioch","Lake","23914"
"60431","Joliet","Will","23860"
"61920","Charleston","Coles","23642"
"60153","Maywood","Cook","23351"
"62864","Mount Vernon","Jefferson","23287"
"61244","East Moline","Rock Island","23194"
"60051","Mchenry","Mchenry","23190"
"60177","South Elgin","Kane","23097"
"60108","Bloomingdale","Du Page","22980"
"60053","Morton Grove","Cook","22937"
"60706","Harwood Heights","Cook","22804"
"61111","Loves Park","Winnebago","22789"
"60561","Darien","Du Page","22674"
"60803","Alsip","Cook","22447"
"61115","Machesney Park","Winnebago","22404"
"61021","Dixon","Lee","22379"
"60178","Sycamore","De Kalb","22295"
"60419","Dolton","Cook","22289"
"60473","South Holland","Cook","22187"
"60008","Rolling Meadows","Cook","22007"
"61615","Peoria","Peoria","21878"
"60490","Bolingbrook","Will","21851"
"60443","Matteson","Cook","21698"
"60045","Lake Forest","Lake","21460"
"61938","Mattoon","Coles","21227"
"60164","Melrose Park","Cook","21120"
"62801","Centralia","Marion","21070"
"61081","Sterling","Whiteside","20910"
"60466","Park Forest","Cook","20856"
"60654","Chicago","Cook","20812"
"60450","Morris","Grundy","20600"
"60432","Joliet","Will","20282"
"60106","Bensenville","Du Page","20246"
"61802","Urbana","Champaign","20100"
"61073","Roscoe","Winnebago","20045"
"61455","Macomb","Mcdonough","20020"
"60093","Winnetka","Cook","19816"
"60430","Homewood","Cook","19728"
"60194","Schaumburg","Cook","19314"
"60805","Evergreen Park","Cook","19290"
"62656","Lincoln","Logan","19113"
"61101","Rockford","Winnebago","19083"
"62401","Effingham","Effingham","19068"
"62305","Quincy","Adams","19016"
"61104","Rockford","Winnebago","18886"
"60104","Bellwood","Cook","18799"
"60513","Brookfield","Cook","18537"
"61364","Streator","La Salle","18489"
"60642","Chicago","Cook","18480"
"60436","Joliet","Will","18378"
"60542","North Aurora","Kane","18363"
"60140","Hampshire","Kane","18148"
"60521","Hinsdale","Du Page","18095"
"62220","Belleville","St. Clair","17949"
"60131","Franklin Park","Cook","17711"
"61550","Morton","Tazewell","17565"
"60304","Oak Park","Cook","17536"
"61102","Rockford","Winnebago","17506"
"60465","Palos Hills","Cook","17197"
"62298","Waterloo","Monroe","17101"
"60084","Wauconda","Lake","16948"
"62223","Belleville","St. Clair","16642"
"60478","Country Club Hills","Cook","16573"
"62208","Fairview Heights","St. Clair","16517"
"61520","Canton","Fulton","16509"
"62035","Godfrey","Madison","16460"
"60154","Westchester","Cook","16255"
"61603","Peoria","Peoria","16083"
"60118","Dundee","Kane","16040"
"60433","Joliet","Will","16029"
"60455","Bridgeview","Cook","15998"
"62249","Highland","Madison","15811"
"60070","Prospect Heights","Cook","15729"
"60192","Schaumburg","Cook","15618"
"62568","Taylorville","Christian","15532"
"60429","Hazel Crest","Cook","15393"
"60458","Justice","Cook","15318"
"62522","Decatur","Macon","15256"
"60546","Riverside","Cook","15208"
"60064","North Chicago","Lake","15208"
"60417","Crete","Will","15187"
"62206","East Saint Louis","St. Clair","15157"
"61114","Rockford","Winnebago","14928"
"62966","Murphysboro","Jackson","14881"
"62629","Chatham","Sangamon","14831"
"60463","Palos Heights","Cook","14556"
"61605","Peoria","Peoria","14556"
"60601","Chicago","Cook","14513"
"61068","Rochelle","Ogle","14194"
"62294","Troy","Madison","14036"
"61764","Pontiac","Livingston","14015"
"61071","Rock Falls","Whiteside","14006"
"60191","Wood Dale","Du Page","13972"
"61853","Mahomet","Champaign","13963"
"62236","Columbia","Monroe","13956"
"60415","Chicago Ridge","Cook","13945"
"60447","Minooka","Grundy","13907"
"60471","Richton Park","Cook","13875"
"61866","Rantoul","Champaign","13863"
"60457","Hickory Hills","Cook","13831"
"60130","Forest Park","Cook","13808"
"61443","Kewanee","Henry","13686"
"60026","Glenview Nas","Cook","13667"
"60410","Channahon","Will","13521"
"60033","Harvard","Mchenry","13479"
"60545","Plano","Kendall","13476"
"62948","Herrin","Williamson","13390"
"62034","Glen Carbon","Madison","13388"
"60555","Warrenville","Du Page","13282"
"60558","Western Springs","Cook","13247"
"60526","La Grange Park","Cook","13178"
"60088","Great Lakes","Lake","12968"
"60633","Chicago","Cook","12720"
"60173","Schaumburg","Cook","12619"
"62052","Jerseyville","Jersey","12599"
"60554","Sugar Grove","Kane","12458"
"60712","Lincolnwood","Cook","12338"
"60152","Marengo","Mchenry","12323"
"62450","Olney","Richland","12274"
"62946","Harrisburg","Saline","12225"
"60548","Sandwich","De Kalb","12170"
"61548","Metamora","Woodford","11966"
"61944","Paris","Edgar","11901"
"60501","Summit Argo","Cook","11840"
"62896","West Frankfort","Franklin","11795"
"60950","Manteno","Kankakee","11604"
"60481","Wilmington","Will","11531"
"60176","Schiller Park","Cook","11499"
"60143","Itasca","Du Page","11490"
"60012","Crystal Lake","Mchenry","11456"
"62812","Benton","Franklin","11407"
"60442","Manhattan","Will","11310"
"61254","Geneseo","Henry","11310"
"60190","Winfield","Du Page","11255"
"61462","Monmouth","Warren","11177"
"62010","Bethalto","Madison","11123"
"61072","Rockton","Winnebago","11121"
"61523","Chillicothe","Peoria","10912"
"60305","River Forest","Cook","10883"
"61607","Peoria","Peoria","10846"
"62454","Robinson","Crawford","10788"
"60661","Chicago","Cook","10734"
"60482","Worth","Cook","10732"
"60097","Wonder Lake","Mchenry","10727"
"62881","Salem","Marion","10688"
"61065","Poplar Grove","Boone","10684"
"62960","Metropolis","Massac","10641"
"61356","Princeton","Bureau","10513"
"60020","Fox Lake","Lake","10500"
"61354","Peru","La Salle","10435"
"62095","Wood River","Madison","10415"
"61264","Milan","Rock Island","10413"
"60119","Elburn","Kane","10397"
"62471","Vandalia","Fayette","10330"
"60534","Lyons","Cook","10321"
"60915","Bradley","Kankakee","10313"
"60044","Lake Bluff","Lake","10259"
"61080","South Beloit","Winnebago","10053"
"62258","Mascoutah","St. Clair","9985"
"60514","Clarendon Hills","Du Page","9970"
"60171","River Grove","Cook","9957"
"62246","Greenville","Bond","9885"
"61301","La Salle","La Salle","9785"
"60475","Steger","Cook","9782"
"60523","Oak Brook","Du Page","9763"
"62024","East Alton","Madison","9731"
"60449","Monee","Will","9707"
"62918","Carterville","Williamson","9646"
"60464","Palos Park","Cook","9625"
"62207","East Saint Louis","St. Clair","9561"
"60081","Spring Grove","Mchenry","9532"
"60083","Wadsworth","Lake","9511"
"62233","Chester","Randolph","9482"
"62863","Mount Carmel","Wabash","9461"
"61727","Clinton","Dewitt","9425"
"60422","Flossmoor","Cook","9355"
"61525","Dunlap","Peoria","9318"
"60416","Coal City","Grundy","9090"
"60425","Glenwood","Cook","8965"
"62837","Fairfield","Wayne","8836"
"62056","Litchfield","Montgomery","8606"
"60042","Island Lake","Lake","8519"
"61834","Danville","Vermilion","8516"
"62832","Du Quoin","Perry","8479"
"61342","Mendota","La Salle","8474"
"62049","Hillsboro","Montgomery","8450"
"62203","East Saint Louis","St. Clair","8393"
"61874","Savoy","Champaign","8393"
"61606","Peoria","Peoria","8317"
"60022","Glencoe","Cook","8245"
"62274","Pinckneyville","Perry","8237"
"60041","Ingleside","Lake","8224"
"60069","Lincolnshire","Lake","8218"
"62204","East Saint Louis","St. Clair","8215"
"62062","Maryville","Madison","8107"
"60162","Hillside","Cook","7996"
"60136","Gilberts","Kane","7941"
"61856","Monticello","Piatt","7935"
"62707","Springfield","Sangamon","7850"
"61282","Silvis","Rock Island","7693"
"60155","Broadview","Cook","7677"
"61951","Sullivan","Moultrie","7617"
"62626","Carlinville","Macoupin","7605"
"61341","Marseilles","La Salle","7599"
"60401","Beecher","Will","7590"
"61010","Byron","Ogle","7354"
"62565","Shelbyville","Shelby","7162"
"62439","Lawrenceville","Lawrence","7143"
"62557","Pana","Christian","7087"
"61241","Colona","Henry","7077"
"62205","East Saint Louis","St. Clair","7016"
"62821","Carmi","White","7000"
"60135","Genoa","De Kalb","6994"
"62618","Beardstown","Cass","6966"
"62441","Marshall","Clark","6953"
"62906","Anna","Union","6892"
"62260","Millstadt","St. Clair","6845"
"62231","Carlyle","Clinton","6776"
"61270","Morrison","Whiteside","6739"
"60096","Winthrop Harbor","Lake","6687"
"61036","Galena","Jo Daviess","6652"
"61530","Eureka","Woodford","6624"
"62012","Brighton","Jersey","6605"
"61061","Oregon","Ogle","6555"
"62201","East Saint Louis","St. Clair","6542"
"60970","Watseka","Iroquois","6509"
"62232","Caseyville","St. Clair","6442"
"62839","Flora","Clay","6409"
"62088","Staunton","Macoupin","6376"
"62230","Breese","Clinton","6359"
"61088","Winnebago","Winnebago","6348"
"62278","Red Bud","Randolph","6345"
"62549","Mt Zion","Macon","6229"
"61873","Saint Joseph","Champaign","6129"
"62286","Sparta","Randolph","6066"
"62243","Freeburg","St. Clair","6023"
"60468","Peotone","Will","5986"
"62254","Lebanon","St. Clair","5896"
"61240","Coal Valley","Rock Island","5889"
"62995","Vienna","Johnson","5875"
"62930","Eldorado","Saline","5825"
"61616","Peoria","Peoria","5825"
"60942","Hoopeston","Vermilion","5800"
"61953","Tuscola","Douglas","5783"
"62684","Sherman","Sangamon","5773"
"62675","Petersburg","Menard","5770"
"62615","Auburn","Sangamon","5739"
"60954","Momence","Kankakee","5706"
"62563","Rochester","Sangamon","5653"
"62859","Mc Leansboro","Hamilton","5610"
"60408","Braidwood","Will","5601"
"60021","Fox River Grove","Mchenry","5592"
"62681","Rushville","Schuyler","5534"
"60469","Posen","Cook","5482"
"62363","Pittsfield","Pike","5472"
"61362","Spring Valley","Bureau","5450"
"60957","Paxton","Ford","5418"
"62448","Newton","Jasper","5417"
"62225","Scott Air Force Base","St. Clair","5323"
"61231","Aledo","Mercer","5319"
"60040","Highwood","Lake","5293"
"62561","Riverton","Sangamon","5289"
"61252","Fulton","Whiteside","5246"
"60551","Sheridan","La Salle","5200"
"62353","Mount Sterling","Brown","5103"
"60163","Berkeley","Cook","5079"
"61610","Creve Coeur","Tazewell","5074"
"61911","Arthur","Douglas","5021"
"60480","Willow Springs","Cook","5009"
"61846","Georgetown","Vermilion","4979"
"60472","Robbins","Cook","4968"
"61016","Cherry Valley","Winnebago","4925"
"62239","Dupo","St. Clair","4919"
"60964","Saint Anne","Kankakee","4884"
"61275","Port Byron","Rock Island","4878"
"62951","Johnston City","Williamson","4878"
"61910","Arcola","Douglas","4848"
"60165","Stone Park","Cook","4842"
"62644","Havana","Mason","4814"
"62263","Nashville","Washington","4785"
"62285","Smithton","St. Clair","4744"
"62033","Gillespie","Macoupin","4716"
"60420","Dwight","Livingston","4699"
"61755","Mackinaw","Tazewell","4695"
"60195","Schaumburg","Cook","4689"
"60461","Olympia Fields","Cook","4677"
"62466","Sumner","Lawrence","4631"
"61025","East Dubuque","Jo Daviess","4590"
"61739","Fairbury","Livingston","4573"
"61745","Heyworth","Mclean","4571"
"62420","Casey","Clark","4510"
"60112","Cortland","De Kalb","4505"
"61738","El Paso","Woodford","4484"
"60552","Somonauk","De Kalb","4443"
"61568","Tremont","Tazewell","4405"
"61752","Le Roy","Mclean","4388"
"61348","Oglesby","La Salle","4358"
"61074","Savanna","Carroll","4299"
"61883","Westville","Vermilion","4262"
"60203","Evanston","Cook","4248"
"60151","Maple Park","Kane","4248"
"61063","Pecatonica","Winnebago","4236"
"60456","Hometown","Cook","4216"
"62293","Trenton","Clinton","4176"
"62411","Altamont","Effingham","4170"
"62467","Teutopolis","Effingham","4168"
"62902","Carbondale","Jackson","4161"
"60936","Gibson City","Ford","4074"
"61547","Mapleton","Peoria","4035"
"62613","Athens","Menard","4024"
"62265","New Baden","Clinton","4019"
"61064","Polo","Ogle","3988"
"62014","Bunker Hill","Macoupin","3918"
"60421","Elwood","Will","3907"
"62060","Madison","Madison","3881"
"61410","Abingdon","Knox","3877"
"60518","Earlville","La Salle","3854"
"61448","Knoxville","Knox","3835"
"61880","Tolono","Champaign","3823"
"61048","Lena","Stephenson","3775"
"62690","Virden","Macoupin","3765"
"61310","Amboy","Lee","3764"
"61054","Mount Morris","Ogle","3660"
"60541","Newark","Kendall","3615"
"62016","Carrollton","Greene","3604"
"60071","Richmond","Mchenry","3602"
"61546","Manito","Mason","3589"
"62321","Carthage","Hancock","3589"
"62075","Nokomis","Montgomery","3564"
"61559","Princeville","Stark","3493"
"62806","Albion","Edwards","3467"
"62341","Hamilton","Hancock","3449"
"61517","Brimfield","Peoria","3442"
"61542","Lewistown","Fulton","3439"
"62535","Forsyth","Macon","3429"
"62447","Neoga","Cumberland","3428"
"62938","Golconda","Pope","3379"
"62275","Pocahontas","Bond","3373"
"62264","New Athens","St. Clair","3357"
"61360","Seneca","La Salle","3307"
"62558","Pawnee","Sangamon","3295"
"62640","Girard","Macoupin","3273"
"61277","Prophetstown","Whiteside","3247"
"62550","Moweaqua","Shelby","3224"
"62069","Mount Olive","Macoupin","3216"
"60606","Chicago","Cook","3204"
"62903","Carbondale","Jackson","3167"
"62664","Mason City","Mason","3159"
"60145","Kingston","De Kalb","3158"
"61273","Orion","Henry","3146"
"61422","Bushnell","Mcdonough","3116"
"61531","Farmington","Fulton","3110"
"62920","Cobden","Union","3109"
"61084","Stillman Valley","Ogle","3102"
"61753","Lexington","Mclean","3094"
"62922","Creal Springs","Williamson","3089"
"61238","Cambridge","Henry","3081"
"62449","Oblong","Crawford","3069"
"60940","Grant Park","Kankakee","3062"
"61085","Stockton","Jo Daviess","3042"
"61019","Davis","Stephenson","3040"
"62694","Winchester","Scott","3014"
"62952","Jonesboro","Union","3006"
"62924","De Soto","Jackson","3001"
"60301","Oak Park","Cook","2998"
"61020","Davis Junction","Ogle","2971"
"60520","Hinckley","De Kalb","2958"
"62858","Louisville","Clay","2950"
"61536","Hanna City","Peoria","2907"
"62018","Cottage Hills","Madison","2896"
"61858","Oakwood","Vermilion","2885"
"62097","Worden","Madison","2883"
"61528","Edwards","Peoria","2862"
"61434","Galva","Henry","2859"
"62822","Christopher","Franklin","2854"
"62417","Bridgeport","Lawrence","2854"
"61529","Elmwood","Peoria","2839"
"62092","White Hall","Greene","2814"
"61956","Villa Grove","Douglas","2806"
"62216","Aviston","Clinton","2793"
"62288","Steeleville","Randolph","2774"
"62428","Greenup","Cumberland","2764"
"62442","Martinsville","Clark","2763"
"61734","Delavan","Tazewell","2760"
"60157","Medinah","Du Page","2740"
"61537","Henry","Marshall","2725"
"62281","Saint Jacob","Madison","2718"
"61250","Erie","Whiteside","2716"
"61723","Atlanta","Logan","2688"
"62884","Sesser","Franklin","2679"
"61540","Lacon","Marshall","2676"
"61748","Hudson","Mclean","2657"
"60953","Milford","Iroquois","2651"
"62939","Goreville","Johnson","2612"
"61012","Capron","Boone","2594"
"62670","New Berlin","Sangamon","2585"
"62082","Roodhouse","Greene","2584"
"61756","Maroa","Macon","2575"
"60922","Chebanse","Iroquois","2571"
"62846","Ina","Jefferson","2563"
"61053","Mount Carroll","Carroll","2560"
"61842","Farmer City","Dewitt","2556"
"61024","Durand","Winnebago","2515"
"62501","Argenta","Macon","2496"
"62044","Greenfield","Greene","2487"
"62869","Norris City","White","2472"
"62320","Camp Point","Adams","2461"
"61281","Sherrard","Mercer","2455"
"60184","Wayne","Du Page","2447"
"62424","Dieterich","Effingham","2447"
"61726","Chenoa","Mclean","2442"
"61817","Catlin","Vermilion","2436"
"62326","Colchester","Mcdonough","2434"
"60556","Waterman","De Kalb","2406"
"61924","Chrisman","Edgar","2394"
"62548","Mount Pulaski","Logan","2388"
"62468","Toledo","Cumberland","2383"
"60043","Kenilworth","Cook","2356"
"61046","Lanark","Carroll","2325"
"61533","Glasford","Peoria","2315"
"60476","Thornton","Cook","2313"
"61011","Caledonia","Boone","2308"
"61561","Roanoke","Woodford","2307"
"61843","Fisher","Champaign","2307"
"62087","South Roxana","Madison","2304"
"61760","Minonk","Woodford","2296"
"62917","Carrier Mills","Saline","2292"
"60424","Gardner","Grundy","2279"
"62080","Ramsey","Fayette","2278"
"62237","Coulterville","Randolph","2269"
"62890","Thompsonville","Franklin","2269"
"62458","Saint Elmo","Fayette","2266"
"62882","Sandoval","Marion","2252"
"61030","Forreston","Ogle","2248"
"62257","Marissa","St. Clair","2236"
"60146","Kirkland","De Kalb","2235"
"62888","Tamaroa","Perry","2231"
"60034","Hebron","Mchenry","2230"
"62910","Brookport","Massac","2224"
"62067","Moro","Madison","2200"
"61833","Tilton","Vermilion","2191"
"61326","Granville","Putnam","2166"
"62935","Galatia","Saline","2161"
"61469","Oquawka","Henderson","2160"
"62926","Dongola","Union","2152"
"60927","Clifton","Iroquois","2150"
"62692","Waverly","Morgan","2148"
"60941","Herscher","Kankakee","2146"
"62685","Shipman","Macoupin","2141"
"61535","Groveland","Tazewell","2117"
"61732","Danvers","Mclean","2116"
"62691","Virginia","Cass","2116"
"62914","Cairo","Alexander","2116"
"61373","Utica","La Salle","2108"
"62870","Odin","Marion","2103"
"62215","Albers","Clinton","2102"
"62312","Barry","Pike","2101"
"62418","Brownstown","Fayette","2101"
"61491","Wyoming","Stark","2099"
"60150","Malta","De Kalb","2077"
"61062","Pearl City","Stephenson","2075"
"62898","Woodlawn","Jefferson","2071"
"62849","Iuka","Marion","2070"
"61427","Cuba","Fulton","2066"
"61849","Homer","Champaign","2059"
"61256","Hampton","Rock Island","2041"
"61415","Avon","Fulton","2041"
"62677","Pleasant Plains","Sangamon","2039"
"61725","Carlock","Mclean","2018"
"62844","Grayville","White","2012"
"62451","Palestine","Crawford","2005"
"60531","Leland","La Salle","2004"
"62958","Makanda","Jackson","1999"
"62838","Farina","Fayette","1997"
"62865","Mulkeytown","Franklin","1973"
"61736","Downs","Mclean","1968"
"62427","Flat Rock","Crawford","1957"
"62974","Pittsburg","Williamson","1955"
"62360","Payson","Adams","1949"
"62272","Percy","Randolph","1947"
"61376","Walnut","Bureau","1934"
"62245","Germantown","Clinton","1933"
"62351","Mendon","Adams","1933"
"60444","Mazon","Grundy","1927"
"61483","Toulon","Stark","1923"
"62271","Okawville","Washington","1914"
"62218","Bartelso","Clinton","1896"
"62823","Cisne","Wayne","1890"
"61534","Green Valley","Tazewell","1881"
"62340","Griggsville","Pike","1879"
"62009","Benld","Macoupin","1874"
"62907","Ava","Jackson","1870"
"62868","Noble","Richland","1852"
"60180","Union","Mchenry","1846"
"62262","Mulberry Grove","Bond","1838"
"61285","Thomson","Carroll","1828"
"60938","Gilman","Iroquois","1828"
"62037","Grafton","Jersey","1822"
"61914","Bethany","Moultrie","1816"
"61744","Gridley","Mclean","1811"
"61028","Elizabeth","Jo Daviess","1809"
"62330","Dallas City","Hancock","1807"
"62814","Bluford","Jefferson","1804"
"62999","Zeigler","Franklin","1802"
"62379","Warsaw","Hancock","1800"
"61937","Lovington","Moultrie","1796"
"61450","La Harpe","Hancock","1776"
"61864","Philo","Champaign","1769"
"62048","Hartford","Madison","1769"
"61570","Washburn","Marshall","1767"
"61047","Leaf River","Ogle","1749"
"62047","Hardin","Calhoun","1747"
"60511","Big Rock","Kane","1746"
"61501","Astoria","Fulton","1741"
"62808","Ashley","Washington","1740"
"60407","Braceville","Grundy","1730"
"62347","Liberty","Adams","1726"
"62414","Beecher City","Effingham","1724"
"62061","Marine","Madison","1718"
"60913","Bonfield","Kankakee","1717"
"61943","Oakland","Coles","1711"
"62531","Edinburg","Christian","1707"
"61235","Atkinson","Henry","1706"
"62366","Pleasant Hill","Pike","1702"
"61741","Forrest","Livingston","1679"
"61283","Tampico","Whiteside","1671"
"60512","Bristol","Kendall","1671"
"61284","Taylor Ridge","Rock Island","1669"
"62824","Clay City","Clay","1665"
"60948","Loda","Iroquois","1663"
"62544","Macon","Macon","1663"
"62895","Wayne City","Wayne","1662"
"62513","Blue Mound","Macon","1658"
"62571","Tower Hill","Shelby","1650"
"62520","Dawson","Sangamon","1646"
"61031","Franklin Grove","Lee","1639"
"62693","Williamsville","Sangamon","1639"
"62674","Palmyra","Macoupin","1635"
"60921","Chatsworth","Livingston","1627"
"60955","Onarga","Iroquois","1626"
"61813","Bement","Piatt","1618"
"62443","Mason","Effingham","1618"
"61818","Cerro Gordo","Piatt","1614"
"61957","Windsor","Shelby","1613"
"61070","Rock City","Stephenson","1598"
"60602","Chicago","Cook","1596"
"62084","Roxana","Madison","1592"
"62612","Ashland","Cass","1590"
"62546","Morrisonville","Christian","1589"
"62828","Dahlgren","Hamilton","1580"
"61865","Potomac","Vermilion","1580"
"61369","Toluca","Marshall","1576"
"62984","Shawneetown","Gallatin","1572"
"62554","Oreana","Macon","1566"
"62510","Assumption","Christian","1554"
"61877","Sidney","Champaign","1551"
"62001","Alhambra","Madison","1540"
"62573","Warrensburg","Macon","1540"
"62476","West Salem","Edwards","1539"
"61377","Wenona","Marshall","1531"
"61913","Atwood","Douglas","1528"
"62899","Xenia","Clay","1517"
"61006","Ashton","Lee","1515"
"62854","Kinmundy","Marion","1515"
"62661","Loami","Sangamon","1512"
"62665","Meredosia","Morgan","1501"
"62240","East Carondelet","St. Clair","1499"
"61322","Depue","Bureau","1498"
"60924","Cissna Park","Iroquois","1496"
"61051","Milledgeville","Carroll","1493"
"62354","Nauvoo","Hancock","1486"
"60963","Rossville","Vermilion","1485"
"60966","Sheldon","Iroquois","1475"
"62912","Buncombe","Johnson","1475"
"62988","Tamms","Alexander","1472"
"61759","Minier","Tazewell","1463"
"61327","Hennepin","Putnam","1459"
"62295","Valmeyer","Monroe","1454"
"61379","Wyanet","Bureau","1454"
"61060","Orangeville","Stephenson","1452"
"62214","Addieville","Washington","1449"
"62540","Kincaid","Christian","1449"
"61912","Ashmore","Coles","1425"
"62668","Murrayville","Morgan","1418"
"61747","Hopedale","Tazewell","1418"
"61565","Sparland","Marshall","1418"
"61486","Viola","Mercer","1415"
"61740","Flanagan","Livingston","1412"
"61421","Bradford","Stark","1398"
"62530","Divernon","Sangamon","1397"
"61087","Warren","Jo Daviess","1394"
"62410","Allendale","Wabash","1383"
"61412","Alexis","Mercer","1377"
"61729","Congerville","Woodford","1376"
"62638","Franklin","Morgan","1372"
"62987","Stonefort","Saline","1368"
"61931","Humboldt","Coles","1356"
"61370","Tonica","La Salle","1354"
"62642","Greenview","Menard","1346"
"61353","Paw Paw","Lee","1346"
"61041","Hanover","Jo Daviess","1345"
"60911","Ashkum","Iroquois","1337"
"62931","Elizabethtown","Hardin","1337"
"61368","Tiskilwa","Bureau","1334"
"62983","Royalton","Franklin","1329"
"62545","Mechanicsburg","Sangamon","1318"
"62933","Energy","Williamson","1309"
"61259","Illinois City","Rock Island","1309"
"61847","Gifford","Champaign","1304"
"61473","Roseville","Warren","1297"
"61330","La Moille","Bureau","1295"
"60935","Essex","Kankakee","1295"
"62242","Evansville","Randolph","1292"
"62803","Hoyleton","Washington","1289"
"61859","Ogden","Champaign","1276"
"61854","Mansfield","Piatt","1274"
"62830","Dix","Jefferson","1274"
"62964","Mounds","Pulaski","1271"
"61078","Shannon","Carroll","1270"
"61319","Cornell","Livingston","1268"
"62462","Sigel","Shelby","1266"
"61878","Thomasboro","Champaign","1263"
"60550","Shabbona","De Kalb","1261"
"62086","Sorento","Bond","1261"
"61728","Colfax","Mclean","1252"
"61488","Wataga","Knox","1252"
"61480","Stronghurst","Henderson","1249"
"61232","Andalusia","Rock Island","1249"
"61329","Ladd","Bureau","1242"
"62990","Thebes","Alexander","1231"
"62324","Clayton","Adams","1229"
"61242","Cordova","Rock Island","1227"
"61272","New Boston","Mercer","1227"
"61239","Carbon Cliff","Rock Island","1225"
"62074","New Douglas","Madison","1223"
"62611","Arenzville","Cass","1222"
"61742","Goodfield","Woodford","1221"
"61572","Yates City","Knox","1217"
"62090","Venice","Madison","1217"
"62816","Bonnie","Jefferson","1208"
"62534","Findlay","Shelby","1208"
"61841","Fairmount","Vermilion","1207"
"60460","Odell","Livingston","1206"
"62621","Bluffs","Scott","1199"
"62473","Watson","Effingham","1194"
"62827","Crossville","White","1189"
"62982","Rosiclare","Hardin","1189"
"60603","Chicago","Cook","1186"
"61467","Oneida","Knox","1183"
"61870","Ridge Farm","Vermilion","1183"
"62523","Decatur","Macon","1183"
"61361","Sheffield","Bureau","1181"
"61925","Dalton City","Moultrie","1179"
"62539","Illiopolis","Sangamon","1178"
"61465","New Windsor","Mercer","1173"
"62835","Enfield","White","1162"
"61754","Mc Lean","Mclean","1157"
"62440","Lerna","Coles","1155"
"62560","Raymond","Montgomery","1154"
"62367","Plymouth","Hancock","1154"
"62932","Elkville","Jackson","1148"
"61001","Apple River","Jo Daviess","1146"
"62875","Patoka","Marion","1146"
"61014","Chadwick","Carroll","1145"
"61777","Wapella","Dewitt","1144"
"62445","Montrose","Effingham","1143"
"61770","Saybrook","Mclean","1139"
"61776","Towanda","Mclean","1135"
"62028","Elsah","Jersey","1133"
"62872","Opdyke","Jefferson","1133"
"61234","Annawan","Henry","1122"
"61447","Kirkwood","Warren","1115"
"62338","Fowler","Adams","1105"
"61814","Bismarck","Vermilion","1097"
"62853","Kell","Marion","1096"
"62894","Waltonville","Jefferson","1091"
"61325","Grand Ridge","La Salle","1085"
"61349","Ohio","Bureau","1083"
"60479","Verona","Grundy","1082"
"62277","Prairie Du Rocher","Randolph","1081"
"62701","Springfield","Sangamon","1080"
"62463","Stewardson","Shelby","1076"
"62956","Karnak","Pulaski","1071"
"61257","Hillsdale","Rock Island","1067"
"62376","Ursa","Adams","1065"
"61942","Newman","Douglas","1064"
"61490","Woodhull","Henry","1053"
"60959","Piper City","Ford","1053"
"61375","Varna","Marshall","1049"
"61018","Dakota","Stephenson","1042"
"62634","Elkhart","Logan","1037"
"61420","Blandinsville","Mcdonough","1037"
"62889","Texico","Jefferson","1032"
"62422","Cowden","Shelby","1032"
"62460","Saint Francisville","Lawrence","1030"
"61441","Ipava","Fulton","1030"
"61075","Scales Mound","Jo Daviess","1024"
"62515","Buffalo","Sangamon","1022"
"61933","Kansas","Edgar","1021"
"61279","Reynolds","Rock Island","1020"
"60072","Ringwood","Mchenry","1020"
"61774","Stanford","Mclean","1019"
"62979","Ridgway","Gallatin","1014"
"61262","Lynn Center","Henry","1007"
"62219","Beckemeyer","Clinton","1006"
"62972","Ozark","Johnson","1000"
"61569","Trivoli","Peoria","993"
"61884","White Heath","Piatt","984"
"61564","South Pekin","Tazewell","982"
"62627","Chandlerville","Cass","980"
"62022","Dow","Jersey","974"
"62017","Coffeen","Montgomery","972"
"62533","Farmersville","Montgomery","965"
"62807","Alma","Marion","964"
"62292","Tilden","Randolph","961"
"62547","Mount Auburn","Christian","960"
"62433","Hutsonville","Crawford","957"
"61428","Dahinda","Knox","953"
"61015","Chana","Ogle","944"
"62244","Fults","Monroe","931"
"61413","Alpha","Henry","929"
"62378","Versailles","Brown","928"
"61230","Albany","Whiteside","918"
"62919","Cave In Rock","Hardin","917"
"62339","Golden","Adams","917"
"62255","Lenzburg","St. Clair","914"
"61733","Deer Creek","Tazewell","911"
"61039","German Valley","Stephenson","910"
"62268","Oakdale","Washington","909"
"62810","Belle Rive","Jefferson","908"
"62431","Herrick","Shelby","903"
"62032","Fillmore","Montgomery","887"
"60960","Rankin","Vermilion","883"
"62094","Witt","Montgomery","882"
"62479","Wheeler","Jasper","874"
"62465","Strasburg","Shelby","873"
"61052","Monroe Center","Ogle","872"
"61314","Buda","Bureau","871"
"61038","Garden Prairie","Boone","869"
"62063","Medora","Jersey","860"
"62241","Ellis Grove","Randolph","855"
"62426","Edgewood","Effingham","853"
"61414","Altona","Knox","852"
"60951","Martinton","Iroquois","851"
"61489","Williamsfield","Knox","847"
"61919","Camargo","Douglas","836"
"62217","Baldwin","Randolph","833"
"60961","Reddick","Kankakee","833"
"62021","Dorsey","Madison","832"
"62992","Ullin","Pulaski","831"
"62628","Chapin","Morgan","831"
"61844","Fithian","Vermilion","827"
"62355","Nebo","Pike","824"
"62343","Hull","Pike","823"
"62551","Niantic","Macon","823"
"62893","Walnut Hill","Marion","820"
"60930","Danforth","Iroquois","814"
"62567","Stonington","Christian","809"
"62625","Cantrall","Sangamon","808"
"61484","Vermont","Fulton","804"
"61436","Gilson","Knox","797"
"62316","Bowen","Hancock","785"
"62432","Hidalgo","Jasper","784"
"62349","Loraine","Adams","781"
"62058","Livingston","Madison","780"
"60530","Lee","Lee","779"
"62963","Mound City","Pulaski","777"
"61438","Good Hope","Mcdonough","776"
"62250","Hoffman","Clinton","773"
"61440","Industry","Mcdonough","771"
"61516","Benson","Woodford","769"
"61863","Pesotum","Champaign","764"
"61367","Sublette","Lee","760"
"62311","Augusta","Hancock","759"
"62836","Ewing","Franklin","757"
"61260","Joy","Mercer","754"
"62688","Tallula","Menard","753"
"61261","Lyndon","Whiteside","750"
"60553","Steward","Lee","749"
"61544","London Mills","Fulton","749"
"61545","Lowpoint","Woodford","748"
"62046","Hamel","Madison","748"
"60474","South Wilmington","Grundy","745"
"62994","Vergennes","Jackson","744"
"62916","Campbell Hill","Jackson","744"
"62949","Hurst","Williamson","742"
"62051","Irving","Montgomery","740"
"61811","Alvin","Vermilion","740"
"62643","Hartsburg","Logan","738"
"61263","Matherville","Mercer","735"
"61345","Neponset","Bureau","735"
"60604","Chicago","Cook","729"
"61602","Peoria","Peoria","726"
"61526","Edelstein","Peoria","725"
"62880","Saint Peter","Fayette","724"
"62891","Valier","Franklin","722"
"62842","Geff","Wayne","720"
"62474","Westfield","Clark","719"
"61442","Keithsburg","Mercer","718"
"62940","Gorham","Jackson","714"
"61928","Gays","Moultrie","712"
"62957","Mc Clure","Alexander","710"
"61721","Armington","Tazewell","707"
"61875","Seymour","Champaign","706"
"62682","San Jose","Mason","705"
"61049","Lindenwood","Ogle","700"
"62356","New Canton","Pike","695"
"61067","Ridott","Stephenson","693"
"60918","Buckley","Iroquois","693"
"61929","Hammond","Piatt","690"
"62461","Shumway","Effingham","688"
"61862","Penfield","Champaign","685"
"62031","Fieldon","Jersey","678"
"61334","Lostant","La Salle","677"
"61318","Compton","Lee","677"
"61769","Saunemin","Livingston","676"
"61437","Gladstone","Henderson","675"
"62934","Equality","Gallatin","675"
"62941","Grand Chain","Pulaski","674"
"61930","Hindsboro","Douglas","671"
"62253","Keyesport","Clinton","665"
"61839","De Land","Piatt","662"
"62238","Cutler","Perry","661"
"61042","Harmon","Lee","659"
"61470","Prairie City","Mcdonough","659"
"62977","Raleigh","Saline","659"
"62883","Scheller","Jefferson","658"
"60537","Millington","Kendall","655"
"61882","Weldon","Dewitt","655"
"61432","Fairview","Fulton","654"
"61778","Waynesville","Dewitt","653"
"61532","Forest City","Mason","647"
"61418","Biggsville","Henderson","645"
"62850","Johnsonville","Wayne","645"
"61453","Little York","Warren","644"
"62036","Golden Eagle","Calhoun","644"
"62970","Olmsted","Pulaski","643"
"61876","Sidell","Vermilion","640"
"61560","Putnam","Putnam","637"
"62942","Grand Tower","Jackson","636"
"61771","Secor","Woodford","627"
"60929","Cullom","Livingston","627"
"60949","Ludlow","Champaign","626"
"62630","Chesterfield","Macoupin","623"
"62954","Junction","Gallatin","623"
"61320","Dalzell","Bureau","622"
"61089","Winslow","Stephenson","621"
"62314","Baylis","Pike","621"
"62908","Belknap","Johnson","619"
"61840","Dewey","Champaign","614"
"62013","Brussels","Calhoun","614"
"62358","Niota","Hancock","612"
"62633","Easton","Mason","611"
"61722","Arrowsmith","Mclean","609"
"60962","Roberts","Ford","609"
"62480","Willow Hill","Jasper","607"
"61430","East Galesburg","Knox","603"
"62436","Jewett","Cumberland","600"
"62655","Kilbourne","Mason","599"
"62477","West Union","Clark","597"
"62689","Thayer","Sangamon","588"
"62997","Willisville","Perry","588"
"62667","Modesto","Macoupin","585"
"62817","Broughton","Hamilton","583"
"62905","Alto Pass","Union","583"
"62475","West Liberty","Jasper","583"
"61423","Cameron","Warren","582"
"62570","Tovey","Christian","582"
"61872","Sadorus","Champaign","581"
"62027","Eldred","Greene","580"
"62015","Butler","Montgomery","578"
"60928","Crescent City","Iroquois","574"
"62280","Rockwood","Randolph","572"
"62375","Timewell","Brown","568"
"62284","Smithboro","Bond","565"
"61472","Rio","Knox","565"
"61932","Hume","Edgar","562"
"61482","Table Grove","Fulton","555"
"62871","Omaha","Gallatin","553"
"61749","Kenney","Dewitt","552"
"62848","Irvington","Washington","551"
"62365","Plainville","Adams","549"
"61337","Malden","Bureau","548"
"60931","Donovan","Iroquois","547"
"62423","Dennison","Clark","546"
"61477","Smithfield","Fulton","539"
"62617","Bath","Mason","538"
"62635","Emden","Logan","538"
"60952","Melvin","Ford","536"
"62421","Claremont","Richland","536"
"60919","Cabery","Ford","535"
"60912","Beaverville","Iroquois","533"
"62867","New Haven","Gallatin","533"
"62469","Trilla","Coles","533"
"61917","Brocton","Edgar","531"
"60910","Aroma Park","Kankakee","520"
"62671","New Holland","Logan","519"
"61724","Bellflower","Mclean","518"
"61730","Cooksville","Mclean","515"
"62380","West Point","Hancock","515"
"62538","Harvel","Montgomery","514"
"60029","Golf","Cook","512"
"62572","Waggoner","Montgomery","509"
"62985","Simpson","Johnson","509"
"61425","Carman","Henderson","503"
"62006","Batchtown","Calhoun","503"
"62045","Hamburg","Calhoun","498"
"62877","Richview","Washington","497"
"60109","Burlington","Kane","496"
"61458","Maquon","Knox","494"
"60917","Buckingham","Kankakee","492"
"62666","Middletown","Logan","487"
"62282","Saint Libory","St. Clair","480"
"62536","Glenarm","Sangamon","480"
"61317","Cherry","Bureau","479"
"62649","Hettick","Macoupin","479"
"62555","Owaneco","Christian","475"
"62054","Kane","Greene","470"
"62923","Cypress","Johnson","469"
"62425","Dundas","Richland","468"
"61563","Saint David","Fulton","467"
"61312","Arlington","Bureau","466"
"62512","Beason","Logan","463"
"61816","Broadlands","Champaign","461"
"60946","Kempton","Ford","457"
"60968","Thawville","Iroquois","451"
"61336","Magnolia","Putnam","450"
"61476","Seaton","Mercer","448"
"61344","Mineral","Bureau","445"
"62091","Walshville","Montgomery","444"
"62053","Kampsville","Calhoun","441"
"61454","Lomax","Henderson","440"
"61737","Ellsworth","Mclean","437"
"61735","Dewitt","Dewitt","434"
"62874","Orient","Franklin","434"
"62885","Shobonier","Fayette","434"
"60470","Ransom","La Salle","430"
"62543","Latham","Logan","425"
"62325","Coatsburg","Adams","421"
"62624","Browning","Schuyler","417"
"62059","Lovejoy","St. Clair","416"
"62313","Basco","Hancock","415"
"61830","Cisco","Piatt","414"
"61278","Rapids City","Rock Island","411"
"61013","Cedarville","Stephenson","411"
"62345","Kinderhook","Pike","407"
"62248","Hecker","Monroe","406"
"61850","Indianola","Vermilion","405"
"62969","Olive Branch","Alexander","404"
"61251","Fenton","Whiteside","402"
"62860","Macedonia","Hamilton","402"
"62297","Walsh","Randolph","402"
"62897","Whittington","Franklin","401"
"61625","Peoria","Peoria","399"
"61567","Topeka","Mason","396"
"62444","Mode","Shelby","396"
"62878","Rinard","Wayne","394"
"62089","Taylor Springs","Montgomery","392"
"62514","Boody","Macon","389"
"62947","Herod","Pope","384"
"62887","Springerton","White","381"
"60932","East Lynn","Vermilion","379"
"62553","Oconee","Shelby","377"
"62446","Mount Erie","Wayne","375"
"61340","Mark","Putnam","373"
"62556","Palmer","Christian","370"
"62915","Cambria","Williamson","370"
"61359","Seatonville","Bureau","369"
"61411","Adair","Mcdonough","367"
"62673","Oakford","Menard","366"
"62818","Browns","Edwards","366"
"61845","Foosland","Champaign","365"
"62996","Villa Ridge","Pulaski","363"
"61485","Victoria","Knox","359"
"61524","Dunfermline","Fulton","359"
"62459","Sainte Marie","Jasper","358"
"62976","Pulaski","Pulaski","358"
"61311","Ancona","Livingston","357"
"61459","Marietta","Fulton","355"
"62831","Du Bois","Washington","352"
"62050","Hillview","Greene","352"
"61812","Armstrong","Vermilion","347"
"61871","Royal","Champaign","345"
"62481","Yale","Jasper","344"
"62886","Sims","Wayne","341"
"62819","Buckner","Franklin","340"
"60973","Wellington","Iroquois","338"
"61940","Metcalf","Edgar","338"
"60549","Serena","La Salle","337"
"62357","New Salem","Pike","335"
"61007","Baileyville","Ogle","332"
"62081","Rockbridge","Greene","331"
"62438","Lakewood","Shelby","331"
"61333","Long Point","Livingston","330"
"61050","Mc Connell","Stephenson","329"
"62856","Logan","Franklin","325"
"60141","Hines","Cook","324"
"61773","Sibley","Ford","320"
"61466","North Henderson","Mercer","319"
"61335","Mc Nabb","Putnam","318"
"62019","Donnellson","Bond","317"
"62352","Milton","Pike","317"
"61321","Dana","La Salle","315"
"60974","Woodland","Iroquois","314"
"61417","Berwick","Warren","312"
"62927","Dowell","Jackson","312"
"60933","Elliott","Ford","312"
"61851","Ivesdale","Champaign","310"
"60113","Creston","Ogle","309"
"61358","Rutland","La Salle","308"
"61378","West Brooklyn","Lee","307"
"62943","Grantsburg","Johnson","304"
"62374","Tennessee","Mcdonough","302"
"62967","New Burnside","Johnson","299"
"62413","Annapolis","Crawford","299"
"62093","Wilsonville","Macoupin","292"
"62862","Mill Shoals","White","291"
"62811","Bellmont","Wabash","288"
"62289","Summerfield","St. Clair","286"
"61775","Strawn","Livingston","286"
"62892","Vernon","Marion","285"
"62370","Rockport","Pike","285"
"62833","Ellery","Edwards","285"
"60945","Iroquois","Iroquois","285"
"62434","Ingraham","Clay","283"
"61810","Allerton","Vermilion","282"
"61363","Standard","Putnam","281"
"61439","Henderson","Knox","277"
"62478","West York","Crawford","276"
"61460","Media","Henderson","275"
"62362","Perry","Pike","274"
"62639","Frederick","Schuyler","274"
"62631","Concord","Morgan","274"
"62601","Alexander","Morgan","271"
"61936","La Place","Piatt","270"
"61416","Bardolph","Mcdonough","269"
"62921","Colp","Williamson","269"
"62079","Piasa","Macoupin","267"
"61720","Anchor","Mclean","264"
"62953","Joppa","Massac","263"
"62452","Parkersburg","Richland","262"
"61772","Shirley","Mclean","258"
"61274","Osco","Henry","257"
"61474","Saint Augustine","Knox","257"
"62695","Woodson","Morgan","256"
"61553","Norris","Fulton","255"
"60557","Wedron","La Salle","255"
"61552","Mossville","Peoria","249"
"62361","Pearl","Pike","247"
"61852","Longview","Champaign","240"
"61815","Bondville","Champaign","240"
"61059","Nora","Jo Daviess","237"
"61313","Blackstone","Livingston","236"
"61451","Laura","Peoria","236"
"62517","Bulpitt","Christian","236"
"62998","Wolf Lake","Union","232"
"61449","La Fayette","Stark","227"
"61519","Bryant","Fulton","225"
"61955","Vermilion","Edgar","224"
"62815","Bone Gap","Edwards","221"
"62077","Panama","Montgomery","221"
"62663","Manchester","Scott","220"
"60129","Esmond","De Kalb","220"
"61315","Bureau","Bureau","220"
"61316","Cedar Point","La Salle","215"
"62419","Calhoun","Richland","214"
"61431","Ellisville","Fulton","214"
"61243","Deer Grove","Whiteside","209"
"61475","Sciota","Mcdonough","206"
"61452","Littleton","Schuyler","205"
"62373","Sutter","Hancock","202"
"61478","Smithshire","Warren","202"
"61338","Manlius","Bureau","201"
"62011","Bingham","Fayette","200"
"61079","Shirland","Winnebago","189"
"60934","Emington","Livingston","189"
"62323","Chambersburg","Pike","188"
"62672","Nilwood","Macoupin","188"
"62825","Coello","Franklin","187"
"62843","Golden Gate","Wayne","187"
"61750","Lane","Dewitt","187"
"61848","Henning","Vermilion","186"
"62319","Camden","Schuyler","185"
"61941","Murdock","Douglas","181"
"61468","Opheim","Henry","180"
"61258","Hooppole","Henry","178"
"60539","Mooseheart","Kane","175"
"62273","Pierron","Bond","174"
"62359","Paloma","Adams","174"
"62030","Fidelity","Jersey","172"
"62083","Rosamond","Christian","168"
"60920","Campus","Livingston","166"
"61949","Redmon","Edgar","165"
"62085","Sawyerville","Macoupin","165"
"62820","Burnt Prairie","White","159"
"61743","Graymont","Livingston","157"
"61372","Troy Grove","La Salle","156"
"61539","Kingston Mines","Peoria","156"
"61044","Kent","Stephenson","153"
"62928","Eddyville","Pope","151"
"62861","Maunie","White","151"
"62334","Elvaston","Hancock","151"
"61731","Cropsey","Mclean","149"
"61831","Collison","Vermilion","146"
"62346","La Prairie","Adams","146"
"62610","Alsey","Scott","146"
"61332","Leonore","La Salle","143"
"62876","Radom","Washington","142"
"62809","Barnhill","Wayne","140"
"61543","Liverpool","Fulton","137"
"61857","Muncie","Vermilion","136"
"60437","Kinsman","Grundy","133"
"62975","Pomona","Jackson","131"
"62950","Jacob","Jackson","131"
"61043","Holcomb","Ogle","130"
"62065","Michael","Calhoun","125"
"60111","Clare","De Kalb","124"
"61471","Raritan","Henderson","123"
"62841","Freeman Spur","Williamson","123"
"61374","Van Orin","Bureau","115"
"61433","Fiatt","Fulton","115"
"62879","Sailor Springs","Clay","108"
"60536","Millbrook","Kendall","108"
"61541","La Rose","Marshall","107"
"62023","Eagarville","Macoupin","106"
"61479","Speer","Stark","105"
"62076","Ohlman","Montgomery","103"
"61855","Milmine","Piatt","103"
"61323","Dover","Bureau","102"
"61324","Eldena","Lee","101"
"62537","Harristown","Macon","99"
"62851","Keenes","Wayne","97"
"61037","Galt","Whiteside","97"
"62518","Chestnut","Logan","96"
"61419","Bishop Hill","Henry","92"
"61426","Castleton","Stark","92"
"62078","Patterson","Greene","89"
"62348","Lima","Adams","85"
"61057","Nachusa","Lee","84"
"61027","Eleroy","Stephenson","84"
"61112","Rockford","Winnebago","76"
"61751","Lawndale","Logan","76"
"62852","Keensburg","Wabash","74"
"61236","Barstow","Rock Island","73"
"62965","Muddy","Saline","71"
"62519","Cornland","Logan","71"
"62532","Elwin","Macon","71"
"61328","Kasbeer","Bureau","70"
"60969","Union Hill","Kankakee","69"
"61424","Camp Grove","Marshall","68"
"60144","Kaneville","Kane","67"
"61091","Woosung","Ogle","67"
"61276","Preemption","Mercer","66"
"61562","Rome","Peoria","58"
"61346","New Bedford","Bureau","57"
"62261","Modoc","Randolph","47"
"60926","Claytonville","Iroquois","45"
"62829","Dale","Hamilton","31"
"62961","Millcreek","Union","28"
"60519","Eola","Du Page","26"
"62336","Ferris","Hancock","26"
"62344","Huntsville","Schuyler","22"
"62541","Lake Fork","Logan","16"
"62098","Wrights","Greene","15"
"61435","Gerlaw","Warren","13"
"62279","Renault","Monroe","12"
"60666","Chicago","Cook","0"
"61077","Seward","Winnebago","0"
"61331","Lee Center","Lee","0"
"62266","New Memphis","Clinton","0"
"62962","Miller City","Alexander","0"
"62622","Bluff Springs","Cass","0"
"62070","Mozier","Calhoun","0"